{
  "norad_id": 62503,
  "name": "STARLINK-32768",
  "history": [
    {
      "epoch": "2026-03-28T15:24:30.336192Z",
      "apogee_km": 483.7667519329216,
      "perigee_km": 482.2910523706869,
      "latitude_deg": -1.0597805654252722e-05,
      "longitude_deg": 124.43965047330397,
      "height_km": 482.72276323517156,
      "semi_major_axis_km": 6861.165902151804,
      "eccentricity": 0.00010754,
      "inclination_deg": 43.0017,
      "raan_deg": 181.6256,
      "arg_perigee_deg": 276.4401,
      "mean_anomaly_deg": 83.6328,
      "mean_motion_rev_day": 15.27586744
    },
    {
      "epoch": "2026-03-29T05:31:55.067808Z",
      "apogee_km": 483.08798711808777,
      "perigee_km": 482.89587550801116,
      "latitude_deg": 1.5222146096754697e-05,
      "longitude_deg": -91.31680344982573,
      "height_km": 482.6721090020283,
      "semi_major_axis_km": 6861.128931313049,
      "eccentricity": 1.4e-05,
      "inclination_deg": 42.9993,
      "raan_deg": 178.3022,
      "arg_perigee_deg": 7.908,
      "mean_anomaly_deg": 352.1774,
      "mean_motion_rev_day": 15.27599091
    },
    {
      "epoch": "2026-03-29T07:06:04.181472Z",
      "apogee_km": 483.86469457074963,
      "perigee_km": 482.1535247310021,
      "latitude_deg": -5.213218619297765e-06,
      "longitude_deg": -115.2881434916754,
      "height_km": 482.8447229639725,
      "semi_major_axis_km": 6861.146109650876,
      "eccentricity": 0.0001247,
      "inclination_deg": 43.0013,
      "raan_deg": 177.9333,
      "arg_perigee_deg": 266.0521,
      "mean_anomaly_deg": 94.0188,
      "mean_motion_rev_day": 15.27593354
    },
    {
      "epoch": "2026-03-30T22:19:59.586528Z",
      "apogee_km": 483.52147306588904,
      "perigee_km": 482.11785855119797,
      "latitude_deg": 5.147072641590736e-05,
      "longitude_deg": 5.38976066122204,
      "height_km": 482.1414353687802,
      "semi_major_axis_km": 6860.956665808543,
      "eccentricity": 0.00010229,
      "inclination_deg": 43.0013,
      "raan_deg": 168.7032,
      "arg_perigee_deg": 310.3713,
      "mean_anomaly_deg": 49.705,
      "mean_motion_rev_day": 15.27656624
    },
    {
      "epoch": "2026-03-31T06:10:46.215840Z",
      "apogee_km": 483.8956093118586,
      "perigee_km": 482.19540828617846,
      "latitude_deg": 6.8315497952427995e-06,
      "longitude_deg": -114.4731108126893,
      "height_km": 482.77035070469117,
      "semi_major_axis_km": 6861.182508799018,
      "eccentricity": 0.0001239,
      "inclination_deg": 43.0018,
      "raan_deg": 166.8569,
      "arg_perigee_deg": 273.5022,
      "mean_anomaly_deg": 86.5688,
      "mean_motion_rev_day": 15.27581198
    },
    {
      "epoch": "2026-04-01T05:43:06.909888Z",
      "apogee_km": 483.8686091937043,
      "perigee_km": 482.242506557488,
      "latitude_deg": 6.1668923448394e-05,
      "longitude_deg": -114.06579193146493,
      "height_km": 483.03372982725534,
      "semi_major_axis_km": 6861.192557875596,
      "eccentricity": 0.0001185,
      "inclination_deg": 43.0011,
      "raan_deg": 161.3171,
      "arg_perigee_deg": 255.6438,
      "mean_anomaly_deg": 104.4283,
      "mean_motion_rev_day": 15.27577842
    },
    {
      "epoch": "2026-04-02T11:32:04.877664Z",
      "apogee_km": 483.83583120286676,
      "perigee_km": 482.3789145727278,
      "latitude_deg": 4.4455077294126036e-05,
      "longitude_deg": 150.453054784064,
      "height_km": 482.7110794012867,
      "semi_major_axis_km": 6861.244372887797,
      "eccentricity": 0.00010617,
      "inclination_deg": 42.9996,
      "raan_deg": 154.302,
      "arg_perigee_deg": 283.7106,
      "mean_anomaly_deg": 76.3628,
      "mean_motion_rev_day": 15.27560538
    },
    {
      "epoch": "2026-04-02T20:57:01.230624Z",
      "apogee_km": 483.9408019716175,
      "perigee_km": 482.10324636176483,
      "latitude_deg": -7.723246252200818e-06,
      "longitude_deg": 6.616908259729218,
      "height_km": 482.6526584117753,
      "semi_major_axis_km": 6861.159024166691,
      "eccentricity": 0.00013391,
      "inclination_deg": 43.0022,
      "raan_deg": 152.0874,
      "arg_perigee_deg": 279.1604,
      "mean_anomaly_deg": 80.9096,
      "mean_motion_rev_day": 15.27589041
    }
  ]
}